UNISAT-6                
1 40012U 14033C   24283.41897858  .00012803  00000+0  15983-2 0  9998
2 40012  97.7167  81.3943 0050181 292.6373  66.9538 14.81607638554747
DUCHIFAT-1              
1 40021U 14033M   24283.50259357  .00034760  00000+0  19670-2 0  9997
2 40021  98.1004 273.6746 0015163  77.4412 282.8512 15.12867579561378
QB50P1                  
1 40025U 14033R   24283.47199331  .00017949  00000+0  13351-2 0  9992
2 40025  98.0545 248.3016 0013261 145.9916 214.2160 15.02963824560025
KAITUO 1A               
1 40904U 15049F   24283.52394684  .00274231  00000+0  19663-2 0  9991
2 40904  97.4712 305.7736 0002888 205.3947 154.7175 15.72869238502239
XW-2C                   
1 40906U 15049H   24283.55627399  .00088256  00000+0  12820-2 0  9996
2 40906  97.4694 304.1996 0004400 221.6909 138.4010 15.55488290502167
XW-2D                   
1 40907U 15049J   24283.57313547  .00255799  00000+0  16593-2 0  9995
2 40907  97.4580 308.6460 0004411 185.1705 174.9515 15.75261235502522
LILACSAT-2              
1 40908U 15049K   24283.54007200  .00019842  00000+0  68299-3 0  9997
2 40908  97.5244 293.3411 0009548 315.3451  44.7020 15.30047879500955
XW-2B                   
1 40911U 15049N   24283.49873015  .00240188  00000+0  17366-2 0  9997
2 40911  97.4561 308.4027 0004075 188.9981 171.1210 15.72765936502363
LAPAN-A2                
1 40931U 15052B   24270.29994034  .00002074  00000+0  19195-3 0  9995
2 40931   5.9998 350.0993 0012711  76.7416 283.4129 14.78150863486449
FOX-1A (AO-85)          
1 40967U 15058D   24283.56693271  .00012589  00000+0  11075-2 0  9993
2 40967  64.7789  24.3795 0189771 269.6269  88.3093 14.83949895 21950
CAS-2T & KS-1Q          
1 41847U 16066G   24283.20602586  .00007924  00000+0  11499-2 0  9998
2 41847  98.4495 353.6540 0351368 193.6320 165.5191 14.41996759415925
ZHUHAI-1 02 (CAS-4B)    
1 42759U 17034B   24283.47007263  .00046757  00000+0  13328-2 0  9997
2 42759  43.0157 297.8250 0011659  40.6103 319.5619 15.35282429404922
ZHUHAI-1 01 (CAS-4A)    
1 42761U 17034D   24283.46045317  .00047709  00000+0  13522-2 0  9995
2 42761  43.0195 296.1234 0011604  52.1751 308.0153 15.35454206404928
RADFXSAT (FOX-1B)       
1 43017U 17073E   24283.18254749  .00027951  00000+0  16201-2 0  9997
2 43017  97.5552 154.7655 0197933 271.6201  86.2359 14.97054919372693
DIWATA-2B               
1 43678U 18084H   24283.53977952  .00006155  00000+0  55045-3 0  9993
2 43678  98.0859  85.0420 0009233  22.1746 337.9872 14.96227360324016
ES'HAIL 2               
1 43700U 18090A   24283.26432203  .00000152  00000+0  00000+0 0  9999
2 43700   0.0172 178.1642 0001117  32.2401 288.9622  1.00271164 21504
FOX-1CLIFF (AO-95)      
1 43770U 18099N   24283.09571292  .00024400  00000+0  15319-2 0  9992
2 43770  97.5318 338.6594 0011910 339.7605  20.3150 15.09213297319721
