[{"OBJECT_NAME":"UNISAT-6","OBJECT_ID":"2014-033C","EPOCH":"2024-10-09T10:03:19.749312","MEAN_MOTION":14.81607638,"ECCENTRICITY":0.0050181,"INCLINATION":97.7167,"RA_OF_ASC_NODE":81.3943,"ARG_OF_PERICENTER":292.6373,"MEAN_ANOMALY":66.9538,"EPHEMERIS_TYPE":0,"CLASSIFICATION_TYPE":"U","NORAD_CAT_ID":40012,"ELEMENT_SET_NO":999,"REV_AT_EPOCH":55474,"BSTAR":0.0015983,"MEAN_MOTION_DOT":0.00012803,"MEAN_MOTION_DDOT":0},{"OBJECT_NAME":"DUCHIFAT-1","OBJECT_ID":"2014-033M","EPOCH":"2024-10-09T12:03:44.084448","MEAN_MOTION":15.12867579,"ECCENTRICITY":0.0015163,"INCLINATION":98.1004,"RA_OF_ASC_NODE":273.6746,"ARG_OF_PERICENTER":77.4412,"MEAN_ANOMALY":282.8512,"EPHEMERIS_TYPE":0,"CLASSIFICATION_TYPE":"U","NORAD_CAT_ID":40021,"ELEMENT_SET_NO":999,"REV_AT_EPOCH":56137,"BSTAR":0.001967,"MEAN_MOTION_DOT":0.0003476,"MEAN_MOTION_DDOT":0},{"OBJECT_NAME":"QB50P1","OBJECT_ID":"2014-033R","EPOCH":"2024-10-09T11:19:40.221984","MEAN_MOTION":15.02963824,"ECCENTRICITY":0.0013261,"INCLINATION":98.0545,"RA_OF_ASC_NODE":248.3016,"ARG_OF_PERICENTER":145.9916,"MEAN_ANOMALY":214.216,"EPHEMERIS_TYPE":0,"CLASSIFICATION_TYPE":"U","NORAD_CAT_ID":40025,"ELEMENT_SET_NO":999,"REV_AT_EPOCH":56002,"BSTAR":0.0013351,"MEAN_MOTION_DOT":0.00017949,"MEAN_MOTION_DDOT":0},{"OBJECT_NAME":"KAITUO 1A","OBJECT_ID":"2015-049F","EPOCH":"2024-10-09T12:34:29.006976","MEAN_MOTION":15.72869238,"ECCENTRICITY":0.0002888,"INCLINATION":97.4712,"RA_OF_ASC_NODE":305.7736,"ARG_OF_PERICENTER":205.3947,"MEAN_ANOMALY":154.7175,"EPHEMERIS_TYPE":0,"CLASSIFICATION_TYPE":"U","NORAD_CAT_ID":40904,"ELEMENT_SET_NO":999,"REV_AT_EPOCH":50223,"BSTAR":0.0019663,"MEAN_MOTION_DOT":0.00274231,"MEAN_MOTION_DDOT":0},{"OBJECT_NAME":"XW-2C","OBJECT_ID":"2015-049H","EPOCH":"2024-10-09T13:21:02.072736","MEAN_MOTION":15.5548829,"ECCENTRICITY":0.00044,"INCLINATION":97.4694,"RA_OF_ASC_NODE":304.1996,"ARG_OF_PERICENTER":221.6909,"MEAN_ANOMALY":138.401,"EPHEMERIS_TYPE":0,"CLASSIFICATION_TYPE":"U","NORAD_CAT_ID":40906,"ELEMENT_SET_NO":999,"REV_AT_EPOCH":50216,"BSTAR":0.001282,"MEAN_MOTION_DOT":0.00088256,"MEAN_MOTION_DDOT":0},{"OBJECT_NAME":"XW-2D","OBJECT_ID":"2015-049J","EPOCH":"2024-10-09T13:45:18.904608","MEAN_MOTION":15.75261235,"ECCENTRICITY":0.0004411,"INCLINATION":97.458,"RA_OF_ASC_NODE":308.646,"ARG_OF_PERICENTER":185.1705,"MEAN_ANOMALY":174.9515,"EPHEMERIS_TYPE":0,"CLASSIFICATION_TYPE":"U","NORAD_CAT_ID":40907,"ELEMENT_SET_NO":999,"REV_AT_EPOCH":50252,"BSTAR":0.0016593,"MEAN_MOTION_DOT":0.00255799,"MEAN_MOTION_DDOT":0},{"OBJECT_NAME":"LILACSAT-2","OBJECT_ID":"2015-049K","EPOCH":"2024-10-09T12:57:42.220800","MEAN_MOTION":15.30047879,"ECCENTRICITY":0.0009548,"INCLINATION":97.5244,"RA_OF_ASC_NODE":293.3411,"ARG_OF_PERICENTER":315.3451,"MEAN_ANOMALY":44.702,"EPHEMERIS_TYPE":0,"CLASSIFICATION_TYPE":"U","NORAD_CAT_ID":40908,"ELEMENT_SET_NO":999,"REV_AT_EPOCH":50095,"BSTAR":0.00068299,"MEAN_MOTION_DOT":0.00019842,"MEAN_MOTION_DDOT":0},{"OBJECT_NAME":"XW-2B","OBJECT_ID":"2015-049N","EPOCH":"2024-10-09T11:58:10.284960","MEAN_MOTION":15.72765936,"ECCENTRICITY":0.0004075,"INCLINATION":97.4561,"RA_OF_ASC_NODE":308.4027,"ARG_OF_PERICENTER":188.9981,"MEAN_ANOMALY":171.121,"EPHEMERIS_TYPE":0,"CLASSIFICATION_TYPE":"U","NORAD_CAT_ID":40911,"ELEMENT_SET_NO":999,"REV_AT_EPOCH":50236,"BSTAR":0.0017366,"MEAN_MOTION_DOT":0.00240188,"MEAN_MOTION_DDOT":0},{"OBJECT_NAME":"LAPAN-A2","OBJECT_ID":"2015-052B","EPOCH":"2024-09-26T07:11:54.845376","MEAN_MOTION":14.78150863,"ECCENTRICITY":0.0012711,"INCLINATION":5.9998,"RA_OF_ASC_NODE":350.0993,"ARG_OF_PERICENTER":76.7416,"MEAN_ANOMALY":283.4129,"EPHEMERIS_TYPE":0,"CLASSIFICATION_TYPE":"U","NORAD_CAT_ID":40931,"ELEMENT_SET_NO":999,"REV_AT_EPOCH":48644,"BSTAR":0.00019195,"MEAN_MOTION_DOT":2.074e-5,"MEAN_MOTION_DDOT":0},{"OBJECT_NAME":"FOX-1A (AO-85)","OBJECT_ID":"2015-058D","EPOCH":"2024-10-09T13:36:22.986144","MEAN_MOTION":14.83949895,"ECCENTRICITY":0.0189771,"INCLINATION":64.7789,"RA_OF_ASC_NODE":24.3795,"ARG_OF_PERICENTER":269.6269,"MEAN_ANOMALY":88.3093,"EPHEMERIS_TYPE":0,"CLASSIFICATION_TYPE":"U","NORAD_CAT_ID":40967,"ELEMENT_SET_NO":999,"REV_AT_EPOCH":2195,"BSTAR":0.0011075,"MEAN_MOTION_DOT":0.00012589,"MEAN_MOTION_DDOT":0},{"OBJECT_NAME":"CAS-2T & KS-1Q","OBJECT_ID":"2016-066G","EPOCH":"2024-10-09T04:56:40.634304","MEAN_MOTION":14.41996759,"ECCENTRICITY":0.0351368,"INCLINATION":98.4495,"RA_OF_ASC_NODE":353.654,"ARG_OF_PERICENTER":193.632,"MEAN_ANOMALY":165.5191,"EPHEMERIS_TYPE":0,"CLASSIFICATION_TYPE":"U","NORAD_CAT_ID":41847,"ELEMENT_SET_NO":999,"REV_AT_EPOCH":41592,"BSTAR":0.0011499,"MEAN_MOTION_DOT":7.924e-5,"MEAN_MOTION_DDOT":0},{"OBJECT_NAME":"ZHUHAI-1 02 (CAS-4B)","OBJECT_ID":"2017-034B","EPOCH":"2024-10-09T11:16:54.275232","MEAN_MOTION":15.35282429,"ECCENTRICITY":0.0011659,"INCLINATION":43.0157,"RA_OF_ASC_NODE":297.825,"ARG_OF_PERICENTER":40.6103,"MEAN_ANOMALY":319.5619,"EPHEMERIS_TYPE":0,"CLASSIFICATION_TYPE":"U","NORAD_CAT_ID":42759,"ELEMENT_SET_NO":999,"REV_AT_EPOCH":40492,"BSTAR":0.0013328,"MEAN_MOTION_DOT":0.00046757,"MEAN_MOTION_DDOT":0},{"OBJECT_NAME":"ZHUHAI-1 01 (CAS-4A)","OBJECT_ID":"2017-034D","EPOCH":"2024-10-09T11:03:03.153888","MEAN_MOTION":15.35454206,"ECCENTRICITY":0.0011604,"INCLINATION":43.0195,"RA_OF_ASC_NODE":296.1234,"ARG_OF_PERICENTER":52.1751,"MEAN_ANOMALY":308.0153,"EPHEMERIS_TYPE":0,"CLASSIFICATION_TYPE":"U","NORAD_CAT_ID":42761,"ELEMENT_SET_NO":999,"REV_AT_EPOCH":40492,"BSTAR":0.0013522,"MEAN_MOTION_DOT":0.00047709,"MEAN_MOTION_DDOT":0},{"OBJECT_NAME":"RADFXSAT (FOX-1B)","OBJECT_ID":"2017-073E","EPOCH":"2024-10-09T04:22:52.103136","MEAN_MOTION":14.97054919,"ECCENTRICITY":0.0197933,"INCLINATION":97.5552,"RA_OF_ASC_NODE":154.7655,"ARG_OF_PERICENTER":271.6201,"MEAN_ANOMALY":86.2359,"EPHEMERIS_TYPE":0,"CLASSIFICATION_TYPE":"U","NORAD_CAT_ID":43017,"ELEMENT_SET_NO":999,"REV_AT_EPOCH":37269,"BSTAR":0.0016201,"MEAN_MOTION_DOT":0.00027951,"MEAN_MOTION_DDOT":0},{"OBJECT_NAME":"DIWATA-2B","OBJECT_ID":"2018-084H","EPOCH":"2024-10-09T12:57:16.950528","MEAN_MOTION":14.9622736,"ECCENTRICITY":0.0009233,"INCLINATION":98.0859,"RA_OF_ASC_NODE":85.042,"ARG_OF_PERICENTER":22.1746,"MEAN_ANOMALY":337.9872,"EPHEMERIS_TYPE":0,"CLASSIFICATION_TYPE":"U","NORAD_CAT_ID":43678,"ELEMENT_SET_NO":999,"REV_AT_EPOCH":32401,"BSTAR":0.00055045,"MEAN_MOTION_DOT":6.155e-5,"MEAN_MOTION_DDOT":0},{"OBJECT_NAME":"ES'HAIL 2","OBJECT_ID":"2018-090A","EPOCH":"2024-10-09T06:20:37.423392","MEAN_MOTION":1.00271164,"ECCENTRICITY":0.0001117,"INCLINATION":0.0172,"RA_OF_ASC_NODE":178.1642,"ARG_OF_PERICENTER":32.2401,"MEAN_ANOMALY":288.9622,"EPHEMERIS_TYPE":0,"CLASSIFICATION_TYPE":"U","NORAD_CAT_ID":43700,"ELEMENT_SET_NO":999,"REV_AT_EPOCH":2150,"BSTAR":0,"MEAN_MOTION_DOT":1.52e-6,"MEAN_MOTION_DDOT":0},{"OBJECT_NAME":"FOX-1CLIFF (AO-95)","OBJECT_ID":"2018-099N","EPOCH":"2024-10-09T02:17:49.596288","MEAN_MOTION":15.09213297,"ECCENTRICITY":0.001191,"INCLINATION":97.5318,"RA_OF_ASC_NODE":338.6594,"ARG_OF_PERICENTER":339.7605,"MEAN_ANOMALY":20.315,"EPHEMERIS_TYPE":0,"CLASSIFICATION_TYPE":"U","NORAD_CAT_ID":43770,"ELEMENT_SET_NO":999,"REV_AT_EPOCH":31972,"BSTAR":0.0015319,"MEAN_MOTION_DOT":0.000244,"MEAN_MOTION_DDOT":0}]
